C/2018 X3 (PANSTARRS),e,43.4116,78.8233,359.7509,12.37577,0.0226384,0.78255185,34.6998,03/13.0/2023,2000,g 14.5,4.0
# From MPC118842
C/2018 Y1 (Iwamoto),e,160.4123,147.4811,357.9104,130.1332,0.0006639,0.99013420,0.0000,02/05.8296/2019,2000,g 11.5,4.0
# From MPC114605
P/2018 Y2 (Africano),e,11.6846,297.2028,162.2448,7.453338,0.0484371,0.47927317,74.1616,03/13.0/2023,2000,g 11.5,4.0
# From MPC114605
P/2019 A1 (PANSTARRS),e,13.7520,312.2613,150.7104,5.116241,0.0851682,0.56917571,137.4472,03/13.0/2023,2000,g 16.0,4.0
# From MPEC 2021-P47
P/2019 A2 (ATLAS),e,14.8612,139.4452,323.8545,5.713894,0.0721615,0.38218102,113.5384,03/13.0/2023,2000,g 10.5,4.0
# From MPEC 2022-M21
P/2019 A3 (PANSTARRS),e,15.3751,31.2940,325.6639,3.144209,0.1767816,0.26608772,297.1492,03/13.0/2023,2000,g 16.0,4.0
# From MPEC 2022-L66
P/2019 A4 (PANSTARRS),e,13.3063,119.2430,343.0167,2.613450,0.2332829,0.08710435,2.2611,03/13.0/2023,2000,g 15.0,4.0
# From MPEC 2021-P47
C/2019 A5 (PANSTARRS),e,67.5523,146.6062,355.8035,21.48851,0.0098945,0.70614087,13.6084,03/13.0/2023,2000,g  9.5,4.0
# From MPC114605
P/2019 A6 (Lemmon-PANSTARRS),e,33.2669,280.1966,156.1911,5.357724,0.0794756,0.63991020,131.5979,03/13.0/2023,2000,g 16.0,4.0
# From MPC115884
P/2019 A8 (PANSTARRS),e,2.1850,114.1142,65.9549,4.291894,0.1108487,0.23754509,189.5662,03/13.0/2023,2000,g 16.0,4.0
# From MPC118842
C/2019 A9 (PANSTARRS),e,84.2546,278.4087,237.9207,39.14163,0.0040248,0.96344587,5.3371,03/13.0/2023,2000,g 15.0,4.0
# From MPEC 2022-L66
C/2019 B1 (Africano),e,123.4097,290.3713,174.7701,137.8810,0.0006088,0.98841185,0.0000,03/18.6728/2019,2000,g 16.0,4.0
# From MPC115885
P/2019 B2 (Groeller),e,17.0125,175.7473,1.0166,3.913868,0.1272902,0.36059904,176.1636,03/13.0/2023,2000,g 14.5,4.0
# From MPEC 2022-YB4
C/2019 B3 (PANSTARRS),h,01/20.3759/2021,66.5376,358.4342,263.9651,1.000036,6.825276,2000,5.5,4.0
# From MPEC 2021-P47
C/2019 C1 (ATLAS),e,36.0505,212.3914,319.0801,646.6426,0.0000599,0.98982993,0.0000,05/04.3388/2020,2000,g 10.0,4.0
# From MPEC 2022-O08
C/2019 D1 (Flewelling),e,34.0111,231.6632,70.6795,142.5156,0.0005793,0.98887400,0.0000,05/11.2238/2019,2000,g 13.0,4.0
# From MPEC 2023-E68
C/2019 E3 (ATLAS),e,84.2972,347.2472,280.6826,61048,0.0000001,0.99983106,0.0000,11/14.8781/2023,2000,g  2.5,4.0
# From MPEC 2023-CD7
C/2019 F1 (ATLAS-Africano),h,06/23.0573/2021,54.2195,38.6718,251.2789,1.003234,3.600773,2000,5.5,4.0
# From MPEC 2021-P47
C/2019 F2 (ATLAS),e,19.2672,175.4659,11.6161,16.62928,0.0145343,0.86493525,18.6335,03/13.0/2023,2000,g 12.0,4.0
# From MPEC 2021-P47
A/2019 G2,e,159.2130,208.1590,82.6038,444.9200,0.0001050,0.99484511,0.0000,12/08.6462/2019,2000,g 16.5,2.0
# From MPEC 2022-VC5
A/2019 G3,e,156.8074,49.8922,161.9189,17.20853,0.0138067,0.83446765,21.5323,03/13.0/2023,2000,g 17.1,2.0
# From MPEC 2022-P82
C/2019 G4 (PANSTARRS),h,09/15.7955/2018,138.3550,130.4530,287.7726,1.001749,5.849061,2000,9.5,4.0
# From MPC114607
P/2019 GG21 (PANSTARRS),e,6.0860,340.5580,208.5992,7.469219,0.0482827,0.47188228,67.7353,03/13.0/2023,2000,g 12.0,4.0
# From MPEC 2022-M21
C/2019 H1 (NEOWISE),e,104.4626,269.2665,19.3413,247.7584,0.0002527,0.99255287,0.0000,04/27.9818/2019,2000,g 15.5,4.0
# From MPEC 2023-A50
C/2019 J1 (Lemmon),e,24.5412,98.1549,167.7480,68.52076,0.0017377,0.96373580,2.4938,03/13.0/2023,2000,g 12.0,4.0
# From MPEC 2021-R75
C/2019 J2 (Palomar),e,105.2335,25.5610,98.6967,161.8885,0.0004785,0.98936200,0.0000,07/20.3132/2019,2000,g 13.0,4.0
# From MPC117071
C/2019 J3 (ATLAS),h,08/02.4054/2019,131.3567,270.5997,16.6123,1.000658,2.371448,2000,13.5,4.0
# From MPEC 2022-M21
C/2019 JU6 (ATLAS),h,06/01.8303/2019,148.3315,21.7660,95.0021,1.000040,2.044770,2000,14.5,4.0
# From MPEC 2022-O08
C/2019 K1 (ATLAS),e,87.0593,73.3415,265.7224,13955,0.0000006,0.99985570,0.0000,02/12.7570/2020,2000,g 10.0,4.0
# From MPC119997
C/2019 K4 (Ye),e,105.2968,180.1465,139.8718,1367,0.0000195,0.99834052,0.0000,06/15.6514/2019,2000,g 12.5,4.0
# From MPEC 2021-P47
C/2019 K5 (Young),e,15.3187,177.1300,175.1331,167.8865,0.0004531,0.98783871,0.0000,06/23.0215/2019,2000,g 13.0,4.0
# From MPEC 2021-P47
C/2019 K6 (PANSTARRS),e,132.3816,42.9936,187.5949,1604,0.0000153,0.99755243,0.0000,05/20.0428/2020,2000,g 11.5,4.0
# From MPEC 2023-D41
C/2019 K7 (Smith),h,06/17.5968/2020,103.5337,307.9615,27.4010,1.000902,4.478287,2000,6.0,4.0
# From MPEC 2021-R75
C/2019 K8 (ATLAS),e,93.1475,291.0315,85.3811,2682,0.0000071,0.99880955,0.0000,07/21.7688/2019,2000,g 11.5,4.0
# From MPEC 2023-A50
C/2019 L1 (PANSTARRS),e,9.9804,254.4301,50.0505,9.841435,0.0319239,0.70543667,41.8288,03/13.0/2023,2000,g 13.5,4.0
# From MPC115886
C/2019 L2 (NEOWISE),e,152.2113,12.5478,18.8378,25.01908,0.0078758,0.93501080,11.3499,03/13.0/2023,2000,g 16.0,4.0
# From MPEC 2023-CD7
P/2019 LD2 (ATLAS),e,11.6213,179.5904,120.2456,5.222824,0.0825745,0.12665494,90.7910,03/13.0/2023,2000,g  8.5,4.0
# From MPEC 2023-E68
C/2019 L3 (ATLAS),h,01/09.6545/2022,48.3505,290.7790,171.6186,1.002066,3.554431,2000,4.5,4.0
# From MPC118095
C/2019 LB7 (Kleyna),e,164.2917,3.8861,336.5617,34.66053,0.0048300,0.92813670,6.9926,03/13.0/2023,2000,g 17.0,4.0
# From MPEC 2022-O08
P/2019 M2 (ATLAS),e,12.2716,307.6158,332.5553,3.028715,0.1869891,0.64745162,254.3265,03/13.0/2023,2000,g 21.2,4.0
# From MPC118095
C/2019 M3 (ATLAS),e,99.5097,154.9270,87.8922,7590,0.0000015,0.99968094,0.0000,01/01.0258/2019,2000,g 12.2,4.0
# From MPEC 2023-C45
C/2019 N1 (ATLAS),e,82.4305,13.5730,193.4218,1779,0.0000131,0.99904130,0.0000,12/01.3736/2020,2000,g  7.5,4.0
# From MPEC 2023-CD8
A/2019 N2,e,89.3910,276.1143,347.1983,1665,0.0000145,0.99883007,0.0000,08/22.7714/2019,2000,g 12.5,2.0
# From MPEC 2022-A21
C/2019 NJ3 (Lemmon),h,10/22.9153/2020,99.4215,142.4683,246.9100,1.002446,4.362794,2000,9.0,4.0
# From MPEC 2023-D72
A/2019 O2,e,93.3068,48.2635,129.6417,57.85492,0.0022397,0.83263665,359.9434,03/13.0/2023,2000,g  9.5,2.0
# From MPEC 2023-E68
C/2019 O3 (Palomar),h,03/09.5544/2021,89.8191,300.4170,60.1270,1.004367,8.820914,2000,3.5,4.0
# From MPEC 2021-P47
A/2019 O4,e,115.0916,354.9091,61.9030,33.27257,0.0051354,0.89041219,5.7834,03/13.0/2023,2000,g 15.5,2.0
# From MPEC 2023-A50
C/2019 Q1 (Lemmon),h,07/20.6571/2020,155.7290,42.4611,56.1885,1.000655,5.002555,2000,8.5,4.0
# From MPC117072
A/2019 Q2,e,159.0303,188.0082,176.3846,57.80865,0.0022424,0.97815873,0.0000,07/22.0780/2019,2000,g 18.0,2.0
# From MPC117072
C/2019 Q3 (PANSTARRS),h,08/21.4081/2018,65.5372,151.3372,152.7932,1.002628,7.265767,2000,8.5,4.0
# From MPC117072
P/2019 S2 (PANSTARRS),e,10.4662,93.1395,217.1553,4.742544,0.0954305,0.20577592,141.2342,03/13.0/2023,2000,g 13.5,4.0
# From MPEC 2022-CN4
P/2019 S3 (PANSTARRS),e,8.6932,150.1533,213.0507,3.415377,0.1561515,0.47120291,202.0354,03/13.0/2023,2000,g 18.3,4.0
# From MPEC 2021-S45
C/2019 S4 (Lemmon),e,92.0779,63.1488,71.3758,233.7012,0.0002759,0.98526969,0.0000,04/08.0311/2020,2000,g 11.0,4.0
# From MPEC 2023-BF4
A/2019 T1,e,120.8766,6.9448,91.0731,38.73115,0.0040890,0.88945188,3.2188,03/13.0/2023,2000,g 13.0,2.0
# From MPEC 2023-BF4
C/2019 T2 (Lemmon),e,111.4769,155.6490,239.4308,3859,0.0000041,0.99931425,0.0000,04/22.5155/2021,2000,g  9.0,4.0
# From MPEC 2022-WQ9
C/2019 T3 (ATLAS),e,121.8460,139.5317,112.4452,3244,0.0000053,0.99816527,0.0000,03/04.2098/2021,2000,g  6.8,4.0
# From MPEC 2023-E68
C/2019 T4 (ATLAS),e,53.6321,199.9393,351.1748,963.7321,0.0000329,0.99559828,0.0000,06/08.9732/2022,2000,g  5.0,4.0
# From MPEC 2021-P47
P/2019 T5 (ATLAS),e,33.4857,247.6270,189.5648,7.996982,0.0435828,0.80950621,57.4962,03/13.0/2023,2000,g 15.0,4.0
# From MPEC 2021-P47
P/2019 T6 (PANSTARRS),e,18.7014,71.2257,328.9911,5.437510,0.0777327,0.62305735,94.8709,03/13.0/2023,2000,g 15.5,4.0
# From MPC118096
P/2019 U4 (PANSTARRS),e,11.7006,200.0007,181.0254,3.520211,0.1492282,0.47601373,189.5971,03/13.0/2023,2000,g 19.0,4.0
# From MPEC 2023-E68
C/2019 U5 (PANSTARRS),h,03/29.8470/2023,113.5204,2.6374,181.4963,1.001473,3.624198,2000,4.5,4.0
# From MPEC 2022-H04
C/2019 U6 (Lemmon),e,60.9798,235.7570,329.5821,343.1039,0.0001551,0.99733741,0.0000,06/18.4527/2020,2000,g 10.0,4.0
# From MPEC 2022-N37
C/2019 V1 (Borisov),e,61.9031,83.1692,51.1630,1509,0.0000168,0.99794928,0.0000,07/16.4073/2020,2000,g 11.0,4.0
# From MPEC 2022-L66
P/2019 V2 (Groeller),e,11.8084,189.1854,335.7704,7.500215,0.0479837,0.33111584,42.0553,03/13.0/2023,2000,g 10.0,4.0
# From MPEC 2023-A50
P/2019 W1 (PANSTARRS),e,23.4748,35.3767,18.7182,4.549194,0.1015786,0.26706932,142.6213,03/13.0/2023,2000,g 12.9,4.0
# From MPEC 2021-P47
P/2019 X1 (Pruyne),e,10.2500,43.6650,36.7987,6.173941,0.0642481,0.30360269,85.4539,03/13.0/2023,2000,g 10.4,4.0
# From MPC119999
C/2019 Y1 (ATLAS),e,73.3552,31.5552,57.9165,86.39706,0.0012273,0.99040185,0.0000,03/15.9651/2020,2000,g 13.7,4.0
# From MPEC 2022-YN2
C/2019 Y4 (ATLAS),e,45.2438,120.6470,177.4538,354.9048,0.0001474,0.99928172,0.0000,05/30.9163/2020,2000,g 11.8,6.0
# From MPEC 2020-L06
C/2019 Y4-A (ATLAS),h,05/30.9428/2020,45.6870,121.0079,177.2876,1.001420,0.253073,2000,11.6,6.0
# From MPEC 2020-L06
C/2019 Y4-B (ATLAS),e,45.3229,120.7025,177.4205,1513,0.0000168,0.99983170,0.0000,05/30.9189/2020,2000,g 12.8,6.0
# From MPEC 2020-L06
C/2019 Y4-C (ATLAS),h,05/30.8976/2020,45.4693,120.7344,177.3210,1.002143,0.254139,2000,12.7,6.0
# From MPEC 2020-L06
C/2019 Y4-D (ATLAS),e,45.5135,121.1097,177.4588,68.46305,0.0017399,0.99629760,0.0000,05/31.0216/2020,2000,g 12.5,6.0
# From MPEC 2023-A50
C/2019 Y5 (PANSTARRS),e,82.7711,51.7587,303.5547,763.7387,0.0000467,0.99355909,0.0000,08/18.0080/2019,2000,g 11.0,4.0
# From MPEC 2023-A50
A/2020 A1,e,149.0381,119.2130,302.5254,25.68181,0.0075730,0.93510251,9.0617,03/13.0/2023,2000,g 18.0,2.0
# From MPEC 2022-YN2
C/2020 A2 (NEOWISE),e,120.6452,286.3114,68.1046,1469,0.0000175,0.99933659,0.0000,01/08.5490/2020,2000,g 13.5,4.0
# From MPEC 2023-A50
C/2020 A3 (ATLAS),h,06/29.2286/2019,146.6734,120.8037,268.3849,1.000982,5.761273,2000,8.0,4.0
# From MPEC 2022-P91
